NORAD_CAT_ID,OBJECT_NAME,OBJECT_TYPE,EPOCH,MEAN_MOTION,ECCENTRICITY,INCLINATION,RA_OF_ASC_NODE,ARG_OF_PERICENTER,MEAN_ANOMALY,BSTAR,MEAN_MOTION_DOT,MEAN_MOTION_DDOT,TLE_LINE0,TLE_LINE1,TLE_LINE2,SEMIMAJOR_AXIS,PERIOD,APOGEE,PERIGEE,DECAYED
51979.0,STARLINK-3656,PAYLOAD,2024-04-16 17:52:59,15.08849158,0.0001379,53.2179,265.3808,68.3172,291.7967,0.00012019,1.626e-05,0.0,0 STARLINK-3656,1 51979U 22025Z   24107.74512913  .00001626  00000-0  12019-3 0  9999,2 51979  53.2179 265.3808 0001379  68.3172 291.7967 15.08849158116603,6917.852,95.437,540.671,538.763,0.0
51979.0,STARLINK-3656,PAYLOAD,2024-04-17 09:46:51,15.08828713,0.0001541,53.2177,262.4094,82.1454,277.9714,-0.00014825,-2.646e-05,0.0,0 STARLINK-3656,1 51979U 22025Z   24108.40754369 -.00002646  00000-0 -14825-3 0  9998,2 51979  53.2177 262.4094 0001541  82.1454 277.9714 15.08828713117818,6917.915,95.438,540.846,538.714,0.0
51979.0,STARLINK-3656,PAYLOAD,2024-04-17 14:33:01,15.08825655,0.0001518,53.218,261.516,81.5131,278.6033,-0.00017043,-2.998e-05,0.0,0 STARLINK-3656,1 51979U 22025Z   24108.60626711 -.00002998  00000-0 -17043-3 0  9994,2 51979  53.2180 261.5160 0001518  81.5131 278.6033 15.08825655116739,6917.924,95.438,540.839,538.739,0.0
51979.0,STARLINK-3656,PAYLOAD,2024-04-17 17:43:47,15.08829681,0.000151,53.218,260.9207,55.0657,305.0477,-0.00010446,-1.95e-05,0.0,0 STARLINK-3656,1 51979U 22025Z   24108.73874706 -.00001950  00000-0 -10446-3 0  9994,2 51979  53.2180 260.9207 0001510  55.0657 305.0477 15.08829681116757,6917.912,95.438,540.822,538.732,0.0
51979.0,STARLINK-3656,PAYLOAD,2024-04-18 14:23:48,15.08844768,0.0001669,53.2177,257.0561,68.6175,291.4995,0.00044848,6.858e-05,0.0,0 STARLINK-3656,1 51979U 22025Z   24109.59986743  .00006858  00000-0  44848-3 0  9997,2 51979  53.2177 257.0561 0001669  68.6175 291.4995 15.08844768116883,6917.866,95.437,540.885,538.576,0.0
51979.0,STARLINK-3656,PAYLOAD,2024-04-18 17:34:34,15.08860337,0.0001714,53.2171,256.4611,63.3277,296.789,0.0010788,0.00016932,0.0,0 STARLINK-3656,1 51979U 22025Z   24109.73234649  .00016932  00000-0  10788-2 0  9993,2 51979  53.2171 256.4611 0001714  63.3277 296.7890 15.08860337118011,6917.818,95.436,540.869,538.498,0.0
51979.0,STARLINK-3656,PAYLOAD,2024-04-19 14:14:35,15.08860886,0.0001536,53.2167,252.5952,63.993,296.122,0.0007733,0.00012047,0.0,0 STARLINK-3656,1 51979U 22025Z   24110.59346284  .00012047  00000-0  77330-3 0  9998,2 51979  53.2167 252.5952 0001536  63.9930 296.1220 15.08860886117036,6917.817,95.436,540.744,538.619,0.0
51979.0,STARLINK-3656,PAYLOAD,2024-04-19 19:00:44,15.08894174,0.0001719,53.2169,251.7024,64.4307,295.6863,0.0021765,0.00034573,0.0,0 STARLINK-3656,1 51979U 22025Z   24110.79217694  .00034573  00000-0  21765-2 0  9990,2 51979  53.2169 251.7024 0001719  64.4307 295.6863 15.08894174118176,6917.715,95.434,540.769,538.391,0.0
51979.0,STARLINK-3656,PAYLOAD,2024-04-20 12:29:57,15.08866588,0.000322,53.2175,248.4214,153.4125,206.7033,0.00078656,0.00012262,0.0,0 STARLINK-3656,1 51979U 22025Z   24111.52080282  .00012262  00000-0  78656-3 0  9996,2 51979  53.2175 248.4214 0003220 153.4125 206.7033 15.08866588118285,6917.799,95.436,541.892,537.437,0.0
51979.0,STARLINK-3656,PAYLOAD,2024-04-20 14:05:21,15.0878821,0.0001108,53.2169,248.1302,107.212,252.8993,-0.0020386,-0.0003254,0.0,0 STARLINK-3656,1 51979U 22025Z   24111.58705021 -.00032540  00000-0 -20386-2 0  9996,2 51979  53.2169 248.1302 0001108 107.2120 252.8993 15.08788210117188,6918.039,95.441,540.67,539.137,0.0
51979.0,STARLINK-3656,PAYLOAD,2024-04-20 18:51:31,15.08785398,0.0001399,53.217,247.2396,135.3469,224.7636,-0.0015349,-0.00024596,0.0,0 STARLINK-3656,1 51979U 22025Z   24111.78577690 -.00024596  00000-0 -15349-2 0  9992,2 51979  53.2170 247.2396 0001399 135.3469 224.7636 15.08785398118326,6918.047,95.441,540.88,538.944,0.0
51979.0,STARLINK-3656,PAYLOAD,2024-04-21 13:56:09,15.0884118,0.0002024,53.2186,243.6728,128.8632,231.2541,0.0016895,0.00026704,0.0,0 STARLINK-3656,1 51979U 22025Z   24112.58067067  .00026704  00000-0  16895-2 0  9991,2 51979  53.2186 243.6728 0002024 128.8632 231.2541 15.08841180117337,6917.877,95.437,541.142,538.342,0.0
51979.0,STARLINK-3656,PAYLOAD,2024-04-21 18:42:18,15.08850882,0.000137,53.2182,242.7765,121.6213,238.4913,0.0011125,0.00017467,0.0,0 STARLINK-3656,1 51979U 22025Z   24112.77938633  .00017467  00000-0  11125-2 0  9995,2 51979  53.2182 242.7765 0001370 121.6213 238.4913 15.08850882117367,6917.847,95.437,540.66,538.764,0.0
51979.0,STARLINK-3656,PAYLOAD,2024-04-22 09:00:47,15.0883937,0.0001288,53.2184,240.1048,105.2256,254.8878,0.00054076,8.329e-05,0.0,0 STARLINK-3656,1 51979U 22025Z   24113.37555461  .00008329  00000-0  54076-3 0  9996,2 51979  53.2184 240.1048 0001288 105.2256 254.8878 15.08839370118562,6917.882,95.438,540.638,538.856,0.0
51979.0,STARLINK-3656,PAYLOAD,2024-04-22 13:46:57,15.0884487,0.0001059,53.2179,239.2107,98.8334,261.2778,0.00042264,6.446e-05,0.0,0 STARLINK-3656,1 51979U 22025Z   24113.57427330  .00006446  00000-0  42264-3 0  9995,2 51979  53.2179 239.2107 0001059  98.8334 261.2778 15.08844870117483,6917.866,95.437,540.463,538.998,0.0
51979.0,STARLINK-3656,PAYLOAD,2024-04-23 12:02:21,15.08841232,0.0001463,53.2188,235.055,59.638,300.4756,0.00028963,4.325e-05,0.0,0 STARLINK-3656,1 51979U 22025Z   24114.50163650  .00004325  00000-0  28963-3 0  9995,2 51979  53.2188 235.0550 0001463  59.6380 300.4756 15.08841232118734,6917.877,95.437,540.754,538.73,0.0
51979.0,STARLINK-3656,PAYLOAD,2024-04-23 13:37:44,15.08859331,0.0001383,53.2176,234.7481,88.5412,271.5738,0.00094795,0.00014839,0.0,0 STARLINK-3656,1 51979U 22025Z   24114.56787269  .00014839  00000-0  94795-3 0  9996,2 51979  53.2176 234.7481 0001383  88.5412 271.5738 15.08859331117633,6917.821,95.436,540.643,538.73,0.0
51979.0,STARLINK-3656,PAYLOAD,2024-04-23 15:13:07,15.08865406,0.0001377,53.2178,234.4502,76.3797,283.7348,0.0011266,0.000177,0.0,0 STARLINK-3656,1 51979U 22025Z   24114.63411184  .00017700  00000-0  11266-2 0  9995,2 51979  53.2178 234.4502 0001377  76.3797 283.7348 15.08865406118756,6917.803,95.436,540.62,538.715,0.0
51979.0,STARLINK-3656,PAYLOAD,2024-04-24 11:53:08,15.0884473,0.0001375,53.2177,230.5965,62.7919,297.3213,8.8614e-05,1.123e-05,0.0,0 STARLINK-3656,1 51979U 22025Z   24115.49523236  .00001123  00000-0  88614-4 0  9997,2 51979  53.2177 230.5965 0001375  62.7919 297.3213 15.08844730118881,6917.866,95.437,540.682,538.78,0.0
51979.0,STARLINK-3656,PAYLOAD,2024-04-24 13:28:31,15.0884607,0.0001575,53.2183,230.2997,62.3801,297.7351,0.00017391,2.481e-05,0.0,0 STARLINK-3656,1 51979U 22025Z   24115.56147288  .00002481  00000-0  17391-3 0  9995,2 51979  53.2183 230.2997 0001575  62.3801 297.7351 15.08846070117782,6917.862,95.437,540.816,538.637,0.0
51979.0,STARLINK-3656,PAYLOAD,2024-04-24 15:03:54,15.08846859,0.0002414,53.2178,229.9966,44.3202,315.7983,0.00026514,3.935e-05,0.0,0 STARLINK-3656,1 51979U 22025Z   24115.62771459  .00003935  00000-0  26514-3 0  9997,2 51979  53.2178 229.9966 0002414  44.3202 315.7983 15.08846859117793,6917.859,95.437,541.394,538.054,0.0
51979.0,STARLINK-3656,PAYLOAD,2024-04-25 13:19:18,15.0883611,0.0001263,53.2171,225.835,82.4766,277.637,-1.7352e-05,-5.64e-06,0.0,0 STARLINK-3656,1 51979U 22025Z   24116.55507227 -.00000564  00000-0 -17352-4 0  9998,2 51979  53.2171 225.8350 0001263  82.4766 277.6370 15.08836110119042,6917.892,95.438,540.631,538.884,0.0
51979.0,STARLINK-3656,PAYLOAD,2024-04-25 14:54:41,15.08838417,0.0001547,53.2178,225.5292,57.9973,302.117,0.00011405,1.528e-05,0.0,0 STARLINK-3656,1 51979U 22025Z   24116.62131339  .00001528  00000-0  11405-3 0  9994,2 51979  53.2178 225.5292 0001547  57.9973 302.1170 15.08838417117944,6917.885,95.438,540.82,538.68,0.0
51979.0,STARLINK-3656,PAYLOAD,2024-04-26 13:10:05,15.08845882,0.0001227,53.2167,221.3756,64.2161,295.8958,0.00033354,5.025e-05,0.0,0 STARLINK-3656,1 51979U 22025Z   24117.54867439  .00005025  00000-0  33354-3 0  9996,2 51979  53.2167 221.3756 0001227  64.2161 295.8958 15.08845882118088,6917.862,95.437,540.576,538.879,0.0
51979.0,STARLINK-3656,PAYLOAD,2024-04-27 13:00:52,15.08863094,0.0001334,53.2163,216.9161,68.7994,291.3141,0.00054113,8.34e-05,0.0,0 STARLINK-3656,1 51979U 22025Z   24118.54226901  .00008340  00000-0  54113-3 0  9999,2 51979  53.2163 216.9161 0001334  68.7994 291.3141 15.08863094118233,6917.81,95.436,540.598,538.752,0.0
51979.0,STARLINK-3656,PAYLOAD,2024-04-28 12:51:39,15.08823485,0.0001478,53.2176,212.452,97.8437,262.2723,-0.000316,-5.311e-05,0.0,0 STARLINK-3656,1 51979U 22025Z   24119.53587858 -.00005311  00000-0 -31600-3 0  9993,2 51979  53.2176 212.4520 0001478  97.8437 262.2723 15.08823485119493,6917.931,95.439,540.818,538.773,0.0
51979.0,STARLINK-3656,PAYLOAD,2024-04-29 12:42:27,15.08850623,0.000132,53.2172,207.9937,100.1317,259.9824,0.001005,0.00015747,0.0,0 STARLINK-3656,1 51979U 22025Z   24120.52948350  .00015747  00000-0  10050-2 0  9999,2 51979  53.2172 207.9937 0001320 100.1317 259.9824 15.08850623119647,6917.848,95.437,540.626,538.8,0.0
51979.0,STARLINK-3656,PAYLOAD,2024-04-29 22:14:46,15.0885247,0.0001229,53.2163,206.2094,98.8226,261.2906,0.00060175,9.305e-05,0.0,0 STARLINK-3656,1 51979U 22025Z   24120.92692156  .00009305  00000-0  60175-3 0  9990,2 51979  53.2163 206.2094 0001229  98.8226 261.2906 15.08852470118595,6917.842,95.437,540.557,538.857,0.0
51979.0,STARLINK-3656,PAYLOAD,2024-04-30 06:11:41,15.08852004,0.0001294,53.2168,204.7232,98.7692,261.3447,0.00037721,5.722e-05,0.0,0 STARLINK-3656,1 51979U 22025Z   24121.25811999  .00005722  00000-0  37721-3 0  9995,2 51979  53.2168 204.7232 0001294  98.7692 261.3447 15.08852004119758,6917.844,95.437,540.604,538.814,0.0
51979.0,STARLINK-3656,PAYLOAD,2024-04-30 12:33:13,15.0885519,0.0001273,53.2169,203.5341,98.9674,261.1462,0.00042519,6.488e-05,0.0,0 STARLINK-3656,1 51979U 22025Z   24121.52307762  .00006488  00000-0  42519-3 0  9994,2 51979  53.2169 203.5341 0001273  98.9674 261.1462 15.08855190118681,6917.834,95.437,540.58,538.818,0.0
